SL-3 R/B                
1 13403U 82079B   26070.83241799  .00006962  00000+0  27688-3 0  9991
2 13403  81.1478 190.5474 0025115 157.5847 202.6490 15.24835439378020
SL-14 R/B               
1 13553U 82092B   26070.60560322  .00000537  00000+0  57584-4 0  9994
2 13553  82.5691 139.6076 0018925 296.6491 178.9685 14.86668450329213
SL-3 R/B                
1 13819U 83010B   26070.83159953  .00017541  00000+0  35119-3 0  9991
2 13819  81.1062 359.6214 0017804  44.0687 316.1973 15.46441342358270
SL-3 R/B                
1 14208U 83075B   26070.83351260  .00011971  00000+0  31536-3 0  9990
2 14208  97.6147  75.4921 0020301 217.7077 142.2746 15.38474696330483
COSMOS 1536             
1 14699U 84013A   26070.55855982  .00007202  00000+0  29679-3 0  9993
2 14699  82.5431 105.9925 0012501 275.9545  84.0268 15.23853403272903
SL-14 R/B               
1 14820U 84027B   26070.84793979  .00000577  00000+0  63172-4 0  9998
2 14820  82.5389 242.9878 0017192 330.5206  29.5039 14.85978835247954
SL-8 R/B                
1 15483U 85006B   26070.89332767  .00000359  00000+0  12775-3 0  9991
2 15483  74.0432 257.0931 0018368 174.3802 292.3504 14.37784656154344
SL-12 R/B(2)            
1 15772U 85042D   26070.75603300  .00000123  00000+0  76550-4 0  9992
2 15772  71.1062  83.3626 0033147 124.7445  48.0948 14.21982941114688
SL-14 R/B               
1 15945U 85069B   26070.83206943  .00000624  00000+0  67688-4 0  9992
2 15945  82.5289  22.9187 0018671 180.5610 179.5589 14.86435835173151
SL-16 R/B               
1 16182U 85097B   26070.62023986 -.00000167  00000+0 -59713-4 0  9992
2 16182  71.0024 136.4904 0009873 257.4680 212.2859 14.16598382 87506
SL-14 R/B               
1 16496U 86006B   26070.87587616  .00000759  00000+0  78222-4 0  9994
2 16496  82.5236 257.6790 0075057 265.3927  93.8714 14.86818128149539
COSMOS 1743             
1 16719U 86034A   26070.43971546  .00040500  00000+0  52491-3 0  9991
2 16719  82.5296  71.9940 0001475 275.9699  84.1389 15.58688651180524
