CCSDS_OMM_VERS = 2.0
CREATION_DATE  = 
ORIGINATOR     = 

OBJECT_NAME    = SL-3 R/B
OBJECT_ID      = 1982-079B
CENTER_NAME    = EARTH
REF_FRAME      = TEME
TIME_SYSTEM    = UTC
MEAN_ELEMENT_THEORY = SGP/SGP4

EPOCH          = 2026-03-11T19:58:40.914336
MEAN_MOTION    = 15.24835439
ECCENTRICITY   = .0025115
INCLINATION    = 81.1478
RA_OF_ASC_NODE = 190.5474
ARG_OF_PERICENTER = 157.5847
MEAN_ANOMALY   = 202.6490

EPHEMERIS_TYPE = 0
CLASSIFICATION_TYPE = U
NORAD_CAT_ID   = 13403
ELEMENT_SET_NO = 999
REV_AT_EPOCH   = 37802
BSTAR          = .27688E-3
MEAN_MOTION_DOT = .6962E-4
MEAN_MOTION_DDOT = 0

CCSDS_OMM_VERS = 2.0
CREATION_DATE  = 
ORIGINATOR     = 

OBJECT_NAME    = SL-14 R/B
OBJECT_ID      = 1982-092B
CENTER_NAME    = EARTH
REF_FRAME      = TEME
TIME_SYSTEM    = UTC
MEAN_ELEMENT_THEORY = SGP/SGP4

EPOCH          = 2026-03-11T14:32:04.118208
MEAN_MOTION    = 14.86668450
ECCENTRICITY   = .0018925
INCLINATION    = 82.5691
RA_OF_ASC_NODE = 139.6076
ARG_OF_PERICENTER = 296.6491
MEAN_ANOMALY   = 178.9685

EPHEMERIS_TYPE = 0
CLASSIFICATION_TYPE = U
NORAD_CAT_ID   = 13553
ELEMENT_SET_NO = 999
REV_AT_EPOCH   = 32921
BSTAR          = .57584E-4
MEAN_MOTION_DOT = .537E-5
MEAN_MOTION_DDOT = 0

CCSDS_OMM_VERS = 2.0
CREATION_DATE  = 
ORIGINATOR     = 

OBJECT_NAME    = SL-3 R/B
OBJECT_ID      = 1983-010B
CENTER_NAME    = EARTH
REF_FRAME      = TEME
TIME_SYSTEM    = UTC
MEAN_ELEMENT_THEORY = SGP/SGP4

EPOCH          = 2026-03-11T19:57:30.199392
MEAN_MOTION    = 15.46441342
ECCENTRICITY   = .0017804
INCLINATION    = 81.1062
RA_OF_ASC_NODE = 359.6214
ARG_OF_PERICENTER = 44.0687
MEAN_ANOMALY   = 316.1973

EPHEMERIS_TYPE = 0
CLASSIFICATION_TYPE = U
NORAD_CAT_ID   = 13819
ELEMENT_SET_NO = 999
REV_AT_EPOCH   = 35827
BSTAR          = .35119E-3
MEAN_MOTION_DOT = .17541E-3
MEAN_MOTION_DDOT = 0

CCSDS_OMM_VERS = 2.0
CREATION_DATE  = 
ORIGINATOR     = 

OBJECT_NAME    = SL-3 R/B
OBJECT_ID      = 1983-075B
CENTER_NAME    = EARTH
REF_FRAME      = TEME
TIME_SYSTEM    = UTC
MEAN_ELEMENT_THEORY = SGP/SGP4

EPOCH          = 2026-03-11T20:00:15.488640
MEAN_MOTION    = 15.38474696
ECCENTRICITY   = .0020301
INCLINATION    = 97.6147
RA_OF_ASC_NODE = 75.4921
ARG_OF_PERICENTER = 217.7077
MEAN_ANOMALY   = 142.2746

EPHEMERIS_TYPE = 0
CLASSIFICATION_TYPE = U
NORAD_CAT_ID   = 14208
ELEMENT_SET_NO = 999
REV_AT_EPOCH   = 33048
BSTAR          = .31536E-3
MEAN_MOTION_DOT = .11971E-3
MEAN_MOTION_DDOT = 0

CCSDS_OMM_VERS = 2.0
CREATION_DATE  = 
ORIGINATOR     = 

OBJECT_NAME    = COSMOS 1536
OBJECT_ID      = 1984-013A
CENTER_NAME    = EARTH
REF_FRAME      = TEME
TIME_SYSTEM    = UTC
MEAN_ELEMENT_THEORY = SGP/SGP4

EPOCH          = 2026-03-11T13:24:19.568448
MEAN_MOTION    = 15.23853403
ECCENTRICITY   = .0012501
INCLINATION    = 82.5431
RA_OF_ASC_NODE = 105.9925
ARG_OF_PERICENTER = 275.9545
MEAN_ANOMALY   = 84.0268

EPHEMERIS_TYPE = 0
CLASSIFICATION_TYPE = U
NORAD_CAT_ID   = 14699
ELEMENT_SET_NO = 999
REV_AT_EPOCH   = 27290
BSTAR          = .29679E-3
MEAN_MOTION_DOT = .7202E-4
MEAN_MOTION_DDOT = 0

CCSDS_OMM_VERS = 2.0
CREATION_DATE  = 
ORIGINATOR     = 

OBJECT_NAME    = SL-14 R/B
OBJECT_ID      = 1984-027B
CENTER_NAME    = EARTH
REF_FRAME      = TEME
TIME_SYSTEM    = UTC
MEAN_ELEMENT_THEORY = SGP/SGP4

EPOCH          = 2026-03-11T20:21:01.997856
MEAN_MOTION    = 14.85978835
ECCENTRICITY   = .0017192
INCLINATION    = 82.5389
RA_OF_ASC_NODE = 242.9878
ARG_OF_PERICENTER = 330.5206
MEAN_ANOMALY   = 29.5039

EPHEMERIS_TYPE = 0
CLASSIFICATION_TYPE = U
NORAD_CAT_ID   = 14820
ELEMENT_SET_NO = 999
REV_AT_EPOCH   = 24795
BSTAR          = .63172E-4
MEAN_MOTION_DOT = .577E-5
MEAN_MOTION_DDOT = 0

CCSDS_OMM_VERS = 2.0
CREATION_DATE  = 
ORIGINATOR     = 

OBJECT_NAME    = SL-8 R/B
OBJECT_ID      = 1985-006B
CENTER_NAME    = EARTH
REF_FRAME      = TEME
TIME_SYSTEM    = UTC
MEAN_ELEMENT_THEORY = SGP/SGP4

EPOCH          = 2026-03-11T21:26:23.510688
MEAN_MOTION    = 14.37784656
ECCENTRICITY   = .0018368
INCLINATION    = 74.0432
RA_OF_ASC_NODE = 257.0931
ARG_OF_PERICENTER = 174.3802
MEAN_ANOMALY   = 292.3504

EPHEMERIS_TYPE = 0
CLASSIFICATION_TYPE = U
NORAD_CAT_ID   = 15483
ELEMENT_SET_NO = 999
REV_AT_EPOCH   = 15434
BSTAR          = .12775E-3
MEAN_MOTION_DOT = .359E-5
MEAN_MOTION_DDOT = 0

CCSDS_OMM_VERS = 2.0
CREATION_DATE  = 
ORIGINATOR     = 

OBJECT_NAME    = SL-12 R/B(2)
OBJECT_ID      = 1985-042D
CENTER_NAME    = EARTH
REF_FRAME      = TEME
TIME_SYSTEM    = UTC
MEAN_ELEMENT_THEORY = SGP/SGP4

EPOCH          = 2026-03-11T18:08:41.251200
MEAN_MOTION    = 14.21982941
ECCENTRICITY   = .0033147
INCLINATION    = 71.1062
RA_OF_ASC_NODE = 83.3626
ARG_OF_PERICENTER = 124.7445
MEAN_ANOMALY   = 48.0948

EPHEMERIS_TYPE = 0
CLASSIFICATION_TYPE = U
NORAD_CAT_ID   = 15772
ELEMENT_SET_NO = 999
REV_AT_EPOCH   = 11468
BSTAR          = .7655E-4
MEAN_MOTION_DOT = .123E-5
MEAN_MOTION_DDOT = 0

CCSDS_OMM_VERS = 2.0
CREATION_DATE  = 
ORIGINATOR     = 

OBJECT_NAME    = SL-14 R/B
OBJECT_ID      = 1985-069B
CENTER_NAME    = EARTH
REF_FRAME      = TEME
TIME_SYSTEM    = UTC
MEAN_ELEMENT_THEORY = SGP/SGP4

EPOCH          = 2026-03-11T19:58:10.798752
MEAN_MOTION    = 14.86435835
ECCENTRICITY   = .0018671
INCLINATION    = 82.5289
RA_OF_ASC_NODE = 22.9187
ARG_OF_PERICENTER = 180.5610
MEAN_ANOMALY   = 179.5589

EPHEMERIS_TYPE = 0
CLASSIFICATION_TYPE = U
NORAD_CAT_ID   = 15945
ELEMENT_SET_NO = 999
REV_AT_EPOCH   = 17315
BSTAR          = .67688E-4
MEAN_MOTION_DOT = .624E-5
MEAN_MOTION_DDOT = 0

CCSDS_OMM_VERS = 2.0
CREATION_DATE  = 
ORIGINATOR     = 

OBJECT_NAME    = SL-16 R/B
OBJECT_ID      = 1985-097B
CENTER_NAME    = EARTH
REF_FRAME      = TEME
TIME_SYSTEM    = UTC
MEAN_ELEMENT_THEORY = SGP/SGP4

EPOCH          = 2026-03-11T14:53:08.723904
MEAN_MOTION    = 14.16598382
ECCENTRICITY   = .0009873
INCLINATION    = 71.0024
RA_OF_ASC_NODE = 136.4904
ARG_OF_PERICENTER = 257.4680
MEAN_ANOMALY   = 212.2859

EPHEMERIS_TYPE = 0
CLASSIFICATION_TYPE = U
NORAD_CAT_ID   = 16182
ELEMENT_SET_NO = 999
REV_AT_EPOCH   = 8750
BSTAR          = -.59713E-4
MEAN_MOTION_DOT = -.167E-5
MEAN_MOTION_DDOT = 0

CCSDS_OMM_VERS = 2.0
CREATION_DATE  = 
ORIGINATOR     = 

OBJECT_NAME    = SL-14 R/B
OBJECT_ID      = 1986-006B
CENTER_NAME    = EARTH
REF_FRAME      = TEME
TIME_SYSTEM    = UTC
MEAN_ELEMENT_THEORY = SGP/SGP4

EPOCH          = 2026-03-11T21:01:15.700224
MEAN_MOTION    = 14.86818128
ECCENTRICITY   = .0075057
INCLINATION    = 82.5236
RA_OF_ASC_NODE = 257.6790
ARG_OF_PERICENTER = 265.3927
MEAN_ANOMALY   = 93.8714

EPHEMERIS_TYPE = 0
CLASSIFICATION_TYPE = U
NORAD_CAT_ID   = 16496
ELEMENT_SET_NO = 999
REV_AT_EPOCH   = 14953
BSTAR          = .78222E-4
MEAN_MOTION_DOT = .759E-5
MEAN_MOTION_DDOT = 0

CCSDS_OMM_VERS = 2.0
CREATION_DATE  = 
ORIGINATOR     = 

OBJECT_NAME    = COSMOS 1743
OBJECT_ID      = 1986-034A
CENTER_NAME    = EARTH
REF_FRAME      = TEME
TIME_SYSTEM    = UTC
MEAN_ELEMENT_THEORY = SGP/SGP4

EPOCH          = 2026-03-11T10:33:11.415744
MEAN_MOTION    = 15.58688651
ECCENTRICITY   = .0001475
INCLINATION    = 82.5296
RA_OF_ASC_NODE = 71.9940
ARG_OF_PERICENTER = 275.9699
MEAN_ANOMALY   = 84.1389

EPHEMERIS_TYPE = 0
CLASSIFICATION_TYPE = U
NORAD_CAT_ID   = 16719
ELEMENT_SET_NO = 999
REV_AT_EPOCH   = 18052
BSTAR          = .52491E-3
MEAN_MOTION_DOT = .405E-3
MEAN_MOTION_DDOT = 0

